ASTERIA                 
1 43020U 98067NH  18320.25613361  .00012445  00000-0  13999-3 0  9990
2 43020  51.6425 328.5105 0003115  35.8108 324.3095 15.63006528 56242
DELLINGR (RBLE)         
1 43021U 98067NJ  18320.22597706  .00007098  00000-0  93580-4 0  9995
2 43021  51.6403 332.7525 0002863  26.0575 334.0562 15.59630261 56183
OSIRIS-3U               
1 43027U 98067NL  18320.54572554  .00059080  00000-0  36837-3 0  9999
2 43027  51.6364 313.7732 0005222  44.2337 315.9080 15.76308073 56347
AEROCUBE 7B             
1 43042U 17071F   18320.62154226  .00002381  00000-0  69082-4 0  9994
2 43042  51.6399  18.3967 0005377  97.3199 262.8397 15.39812885 53085
AEROCUBE 7C             
1 43043U 17071G   18320.55645455  .00002282  00000-0  66610-4 0  9990
2 43043  51.6403  18.7206 0005469  98.7191 261.4413 15.39817994 53047
CHEFSAT                 
1 43044U 17071H   18320.51249966  .00004682  00000-0  11997-3 0  9997
2 43044  51.6407  16.9799 0005261  96.6607 263.4977 15.41358200 53060
ASGARDIA 1              
1 43049U 17071N   18320.59007371  .00002480  00000-0  71246-4 0  9990
2 43049  51.6409  18.2078 0002914 114.0525 246.0764 15.39931801 53059
ISARA                   
1 43050U 17071P   18320.53582294  .00003543  00000-0  94008-4 0  9990
2 43050  51.6400  17.1183 0002703 108.4465 251.6814 15.41067636 53050
FAUNA                   
1 43052U 17071R   18320.43312556  .00002928  00000-0  81813-4 0  9999
2 43052  51.6407  18.6728 0002849 109.7865 250.3427 15.40120470 53027
CORVUS BC3              
1 43118U 18004H   18320.23901054  .00000807  00000-0  37913-4 0  9990
2 43118  97.5159  22.9962 0008984 285.4960  74.5284 15.22497579 46841
MICROMAS-2A             
1 43131U 18004W   18320.85288204  .00001834  00000-0  80240-4 0  9990
2 43131  97.5172  23.8986 0008097 286.0925  73.9420 15.23343635 46951
GOMX4-B                 
1 43196U 18015E   18320.50142563  .00000450  00000-0  21601-4 0  9991
2 43196  97.3650  86.5030 0018893 346.5615  13.5116 15.23753946 43724
GOMX4-A                 
1 43197U 18015F   18320.85173471  .00000326  00000-0  16414-4 0  9990
2 43197  97.3675  86.8564 0018830 346.4416 164.9501 15.23824881 43788
1KUNS-PF                
1 43466U 98067NP  18320.45599543  .00011552  00000-0  15066-3 0  9996
2 43466  51.6402 335.7790 0001398  34.2160 325.8922 15.59198551 29421
UBAKUSAT                
1 43467U 98067NQ  18320.43988252  .00008290  00000-0  11422-3 0  9991
2 43467  51.6394 336.4229 0002950 358.1914   1.9067 15.58175974 29422
BATSU-CS1 (IRAZU)       
1 43468U 98067NR  18320.41209738  .00013191  00000-0  16609-3 0  9993
2 43468  51.6400 335.4860 0001393  35.7536 324.3550 15.59988272129412
CUBERRT                 
1 43546U 98067NU  18320.27741599  .00016218  00000-0  22321-3 0  9991
2 43546  51.6401 339.0778 0006717  45.1737 314.9800 15.57396611 19500
TEMPEST-D               
1 43547U 98067NV  18320.57840987  .00003182  00000-0  52230-4 0  9995
2 43547  51.6403 338.0842 0006529  46.4741 313.6792 15.55764826 19224
RAINCUBE                
1 43548U 98067NW  18320.55476016  .00008462  00000-0  12302-3 0  9993
2 43548  51.6400 337.9274 0006719  53.6244 306.5367 15.56672996 19673
HALOSAT                 
1 43549U 98067NX  18320.42695973  .00008281  00000-0  12053-3 0  9997
2 43549  51.6401 338.5748 0006635  55.3347 304.8270 15.56675580 19214
ENDUROSAT ONE           
1 43551U 98067NZ  18320.26588432  .00009462  00000-0  13385-3 0  9994
2 43551  51.6396 338.9970 0007253  59.9051 300.2660 15.57250455 19607
EQUISAT                 
1 43552U 98067PA  18320.46870815  .00008253  00000-0  11897-3 0  9999
2 43552  51.6400 338.1041 0007427  61.2813 298.8924 15.56941790 19591
AEROCUBE 12A            
1 43556U 18046C   18320.50896187  .00000811  00000-0  42055-4 0  9990
2 43556  51.6445   3.5117 0008836  27.8460 332.2990 15.28025108 18806
AEROCUBE 12B            
1 43557U 18046D   18320.51044657  .00000768  00000-0  40563-4 0  9992
2 43557  51.6445   3.5208 0008848  27.8277 332.3175 15.27978590 18758
UITMSAT-1               
1 43589U 98067PD  18320.44975005  .00008784  00000-0  12788-3 0  9993
2 43589  51.6396 338.7231 0006779  68.7626 291.4089 15.56576188 15328
MAYA-1                  
1 43590U 98067PE  18320.44800471  .00008724  00000-0  12693-3 0  9998
2 43590  51.6397 338.7121 0006880  69.3333 290.8396 15.56602495 15251
BHUTAN-1                
1 43591U 98067PF  18320.44554242  .00008553  00000-0  12439-3 0  9999
2 43591  51.6398 338.6959 0006974  70.5827 289.5918 15.56644782 15257
SIRIUSSAT-1             
1 43595U 98067PG  18320.47438893  .00008733  00000-0  12914-3 0  9997
2 43595  51.6398 338.8840 0004459  29.4316 330.6926 15.56164283 14433
SIRIUSSAT-2             
1 43596U 98067PH  18320.48292485  .00008542  00000-0  12718-3 0  9994
2 43596  51.6407 338.9502 0005138  31.4826 328.6472 15.56009174 14435
TANUSHA-3               
1 43597U 98067PJ  18320.47324843  .00010596  00000-0  15400-3 0  9991
2 43597  51.6387 338.8675 0004727  42.4149 317.7207 15.56372039 14434
SURFSAT                 
1 43614U 18070B   18320.59357934  .00002612  00000-0  73173-4 0  9999
2 43614  93.0324 275.1513 0019534  55.3605 304.9432 15.36505170  9525
CP-7 (DAVE)             
1 43615U 18070C   18320.59333333  .00002440  00000-0  68353-4 0  9990
2 43615  93.0320 275.1519 0019582  55.0218 305.2816 15.36503348  9523
ELFIN-B                 
1 43616U 18070D   18320.39439718 -.00000006  00000-0  00000+0 0  9990
2 43616  93.0328 275.0433 0020411  61.8929 298.5105 15.36638966  9499
ELFIN-A                 
1 43617U 18070E   18320.39315751 -.00000006  00000-0  00000+0 0  9991
2 43617  93.0382 275.0916 0019122  59.2276 301.1578 15.36675174  9496
DEBRISSAT-1             
1 43621U 98067PM  18320.59497468  .00061969  00000-0  69381-3 0  9993
2 43621  51.6469 336.7373 0008554  44.7249 315.4429 15.62065540  9464
CUBEBEL-1 (BSUSAT-1)    
1 43666U 18083E   18320.82757007  .00000862  00000-0  46841-4 0  9998
2 43666  97.5386 341.6082 0014173 205.8000 274.9758 15.17125587  2859
DEBRISSAT-2             
1 43680U 98067PR  18320.58652511  .00012212  00000-0  17965-3 0  9997
2 43680  51.6461 338.1244 0004558  63.0613 297.0843 15.55876073 23197
